STARLINK-31597          
1 59464U 24068K   26068.30533245 -.00000273  00000+0 -40808-6 0  9994
2 59464  43.0054  36.7110 0001151 266.8565  93.2155 15.27578443108415
YAOGAN-43 01G           
1 60464U 24148G   26068.44348481  .00010133  00000+0  35873-3 0  9993
2 60464  35.0006  62.0013 0007382 306.3543  53.6492 15.28332833 87004
